[
    {
        "Altitude(m)": 610405.3274398078,
        "Argument of Periapsis(deg)": 0.0,
        "Eccentricity": 0.0,
        "Inclination(deg)": 60.0,
        "Latitude(deg)": 52.111283736059804,
        "Longitude(deg)": 162.47755018250547,
        "Mean Anomaly(deg)": 114.5455,
        "RAAN(deg)": 130.0,
        "Satellite Name": "Test1 579",
        "Satellite Number": 579,
        "Semi-Major Axis(m)": 6980739.136638005,
        "Time(s)": 0
    },
    {
        "Altitude(m)": 610321.8999271945,
        "Argument of Periapsis(deg)": 0.00010418945913296404,
        "Eccentricity": 0.0,
        "Inclination(deg)": 60.0,
        "Latitude(deg)": 51.74599732454565,
        "Longitude(deg)": 163.24644247806933,
        "Mean Anomaly(deg)": 115.16560614546188,
        "RAAN(deg)": 129.99957995086024,
        "Satellite Name": "Test1 579",
        "Satellite Number": 579,
        "Semi-Major Axis(m)": 6980739.136638005,
        "Time(s)": 10
    },
    {
        "Altitude(m)": 610237.108266681,
        "Argument of Periapsis(deg)": 0.0002083789182659281,
        "Eccentricity": 0.0,
        "Inclination(deg)": 60.0,
        "Latitude(deg)": 51.37519185884902,
        "Longitude(deg)": 164.00228220033057,
        "Mean Anomaly(deg)": 115.7857122909237,
        "RAAN(deg)": 129.9991599017205,
        "Satellite Name": "Test1 579",
        "Satellite Number": 579,
        "Semi-Major Axis(m)": 6980739.136638005,
        "Time(s)": 20
    },
    {
        "Altitude(m)": 610151.002639278,
        "Argument of Periapsis(deg)": 0.00031256837739889213,
        "Eccentricity": 0.0,
        "Inclination(deg)": 60.0,
        "Latitude(deg)": 50.99902592359232,
        "Longitude(deg)": 164.74526248127503,
        "Mean Anomaly(deg)": 116.4058184363855,
        "RAAN(deg)": 129.99873985258077,
        "Satellite Name": "Test1 579",
        "Satellite Number": 579,
        "Semi-Major Axis(m)": 6980739.136638005,
        "Time(s)": 30
    },
    {
        "Altitude(m)": 610063.6340885076,
        "Argument of Periapsis(deg)": 0.0004167578365318562,
        "Eccentricity": 0.0,
        "Inclination(deg)": 60.0,
        "Latitude(deg)": 50.61765434942096,
        "Longitude(deg)": 165.47558415451033,
        "Mean Anomaly(deg)": 117.02592458184733,
        "RAAN(deg)": 129.99831980344103,
        "Satellite Name": "Test1 579",
        "Satellite Number": 579,
        "Semi-Major Axis(m)": 6980739.136638005,
        "Time(s)": 40
    },
    {
        "Altitude(m)": 609975.054495771,
        "Argument of Periapsis(deg)": 0.0005209472956648203,
        "Eccentricity": 0.0,
        "Inclination(deg)": 60.0,
        "Latitude(deg)": 50.23122818787654,
        "Longitude(deg)": 166.1934536966223,
        "Mean Anomaly(deg)": 117.64603072730914,
        "RAAN(deg)": 129.99789975430127,
        "Satellite Name": "Test1 579",
        "Satellite Number": 579,
        "Semi-Major Axis(m)": 6980739.136638005,
        "Time(s)": 50
    },
    {
        "Altitude(m)": 609885.3165552985,
        "Argument of Periapsis(deg)": 0.0006251367547977843,
        "Eccentricity": 0.0,
        "Inclination(deg)": 60.0,
        "Latitude(deg)": 49.839894700928625,
        "Longitude(deg)": 166.8990827521904,
        "Mean Anomaly(deg)": 118.26613687277096,
        "RAAN(deg)": 129.99747970516154,
        "Satellite Name": "Test1 579",
        "Satellite Number": 579,
        "Semi-Major Axis(m)": 6980739.136638005,
        "Time(s)": 60
    },
    {
        "Altitude(m)": 609794.473748653,
        "Argument of Periapsis(deg)": 0.0007293262139307483,
        "Eccentricity": 0.0,
        "Inclination(deg)": 60.0,
        "Latitude(deg)": 49.443797363737325,
        "Longitude(deg)": 167.5926877280605,
        "Mean Anomaly(deg)": 118.8862430182328,
        "RAAN(deg)": 129.9970596560218,
        "Satellite Name": "Test1 579",
        "Satellite Number": 579,
        "Semi-Major Axis(m)": 6980739.136638005,
        "Time(s)": 70
    },
    {
        "Altitude(m)": 609702.580318837,
        "Argument of Periapsis(deg)": 0.0008335156730637124,
        "Eccentricity": 0.0,
        "Inclination(deg)": 60.0,
        "Latitude(deg)": 49.043075879292594,
        "Longitude(deg)": 168.27448794206614,
        "Mean Anomaly(deg)": 119.50634916369464,
        "RAAN(deg)": 129.99663960688207,
        "Satellite Name": "Test1 579",
        "Satellite Number": 579,
        "Semi-Major Axis(m)": 6980739.136638005,
        "Time(s)": 80
    },
    {
        "Altitude(m)": 609609.6912440136,
        "Argument of Periapsis(deg)": 0.0009377051321966765,
        "Eccentricity": 0.0,
        "Inclination(deg)": 60.0,
        "Latitude(deg)": 48.63786620364313,
        "Longitude(deg)": 168.94470534967675,
        "Mean Anomaly(deg)": 120.1264553091565,
        "RAAN(deg)": 129.9962195577423,
        "Satellite Name": "Test1 579",
        "Satellite Number": 579,
        "Semi-Major Axis(m)": 6980739.136638005,
        "Time(s)": 90
    },
    {
        "Altitude(m)": 609515.8622108141,
        "Argument of Periapsis(deg)": 0.0010418945913296407,
        "Eccentricity": 0.0,
        "Inclination(deg)": 60.0,
        "Latitude(deg)": 48.22830058051538,
        "Longitude(deg)": 169.60356433317423,
        "Mean Anomaly(deg)": 120.74656145461832,
        "RAAN(deg)": 129.9957995086026,
        "Satellite Name": "Test1 579",
        "Satellite Number": 579,
        "Semi-Major Axis(m)": 6980739.136638005,
        "Time(s)": 100
    },
    {
        "Altitude(m)": 609421.1495872815,
        "Argument of Periapsis(deg)": 0.0011460840504626045,
        "Eccentricity": 0.0,
        "Inclination(deg)": 60.0,
        "Latitude(deg)": 47.81450758420169,
        "Longitude(deg)": 170.25129003776163,
        "Mean Anomaly(deg)": 121.36666760008016,
        "RAAN(deg)": 129.99537945946284,
        "Satellite Name": "Test1 579",
        "Satellite Number": 579,
        "Semi-Major Axis(m)": 6980739.136638005,
        "Time(s)": 110
    },
    {
        "Altitude(m)": 609325.6103954568,
        "Argument of Periapsis(deg)": 0.0012502735095955685,
        "Eccentricity": 0.0,
        "Inclination(deg)": 60.0,
        "Latitude(deg)": 47.39661216966714,
        "Longitude(deg)": 170.88810827750274,
        "Mean Anomaly(deg)": 121.986773745542,
        "RAAN(deg)": 129.9949594103231,
        "Satellite Name": "Test1 579",
        "Satellite Number": 579,
        "Semi-Major Axis(m)": 6980739.136638005,
        "Time(s)": 120
    },
    {
        "Altitude(m)": 609229.302283592,
        "Argument of Periapsis(deg)": 0.0013544629687285324,
        "Eccentricity": 0.0,
        "Inclination(deg)": 60.0,
        "Latitude(deg)": 46.97473572891019,
        "Longitude(deg)": 171.5142454952746,
        "Mean Anomaly(deg)": 122.6068798910038,
        "RAAN(deg)": 129.99453936118334,
        "Satellite Name": "Test1 579",
        "Satellite Number": 579,
        "Semi-Major Axis(m)": 6980739.136638005,
        "Time(s)": 130
    },
    {
        "Altitude(m)": 609132.2834980474,
        "Argument of Periapsis(deg)": 0.0014586524278614966,
        "Eccentricity": 0.0,
        "Inclination(deg)": 60.0,
        "Latitude(deg)": 46.548996152688225,
        "Longitude(deg)": 172.12992726088197,
        "Mean Anomaly(deg)": 123.22698603646562,
        "RAAN(deg)": 129.99411931204364,
        "Satellite Name": "Test1 579",
        "Satellite Number": 579,
        "Semi-Major Axis(m)": 6980739.136638005,
        "Time(s)": 140
    },
    {
        "Altitude(m)": 609034.612854851,
        "Argument of Periapsis(deg)": 0.0015628418869944607,
        "Eccentricity": 0.0,
        "Inclination(deg)": 60.0,
        "Latitude(deg)": 46.11950789678303,
        "Longitude(deg)": 172.73537833009107,
        "Mean Anomaly(deg)": 123.84709218192742,
        "RAAN(deg)": 129.99369926290387,
        "Satellite Name": "Test1 579",
        "Satellite Number": 579,
        "Semi-Major Axis(m)": 6980739.136638005,
        "Time(s)": 150
    },
    {
        "Altitude(m)": 608936.3497109147,
        "Argument of Periapsis(deg)": 0.0016670313461274247,
        "Eccentricity": 0.0,
        "Inclination(deg)": 60.0,
        "Latitude(deg)": 45.6863820520603,
        "Longitude(deg)": 173.33082274875014,
        "Mean Anomaly(deg)": 124.46719832738926,
        "RAAN(deg)": 129.99327921376414,
        "Satellite Name": "Test1 579",
        "Satellite Number": 579,
        "Semi-Major Axis(m)": 6980739.136638005,
        "Time(s)": 160
    },
    {
        "Altitude(m)": 608837.5539350077,
        "Argument of Periapsis(deg)": 0.0017712208052603888,
        "Eccentricity": 0.0,
        "Inclination(deg)": 60.0,
        "Latitude(deg)": 45.249726417642876,
        "Longitude(deg)": 173.91648248620842,
        "Mean Anomaly(deg)": 125.08730447285112,
        "RAAN(deg)": 129.99285916462438,
        "Satellite Name": "Test1 579",
        "Satellite Number": 579,
        "Semi-Major Axis(m)": 6980739.136638005,
        "Time(s)": 170
    },
    {
        "Altitude(m)": 608738.2858783711,
        "Argument of Periapsis(deg)": 0.001875410264393353,
        "Eccentricity": 0.0,
        "Inclination(deg)": 60.0,
        "Latitude(deg)": 44.80964557657382,
        "Longitude(deg)": 174.49257762094342,
        "Mean Anomaly(deg)": 125.70741061831295,
        "RAAN(deg)": 129.99243911548467,
        "Satellite Name": "Test1 579",
        "Satellite Number": 579,
        "Semi-Major Axis(m)": 6980739.136638005,
        "Time(s)": 180
    },
    {
        "Altitude(m)": 608638.6063451245,
        "Argument of Periapsis(deg)": 0.0019795997235263173,
        "Eccentricity": 0.0,
        "Inclination(deg)": 60.0,
        "Latitude(deg)": 44.3662409734114,
        "Longitude(deg)": 175.05932656276912,
        "Mean Anomaly(deg)": 126.32751676377478,
        "RAAN(deg)": 129.99201906634488,
        "Satellite Name": "Test1 579",
        "Satellite Number": 579,
        "Semi-Major Axis(m)": 6980739.136638005,
        "Time(s)": 190
    }
]